CCSDS_OMM_VERS = 2.0
CREATION_DATE  = 
ORIGINATOR     = 

OBJECT_NAME    = SL-3 R/B
OBJECT_ID      = 1982-079B
CENTER_NAME    = EARTH
REF_FRAME      = TEME
TIME_SYSTEM    = UTC
MEAN_ELEMENT_THEORY = SGP/SGP4

EPOCH          = 2026-02-27T02:25:18.085728
MEAN_MOTION    = 15.24610086
ECCENTRICITY   = .0024641
INCLINATION    = 81.1458
RA_OF_ASC_NODE = 205.5770
ARG_OF_PERICENTER = 200.3518
MEAN_ANOMALY   = 159.6736

EPHEMERIS_TYPE = 0
CLASSIFICATION_TYPE = U
NORAD_CAT_ID   = 13403
ELEMENT_SET_NO = 999
REV_AT_EPOCH   = 37608
BSTAR          = .29733E-3
MEAN_MOTION_DOT = .7422E-4
MEAN_MOTION_DDOT = 0

CCSDS_OMM_VERS = 2.0
CREATION_DATE  = 
ORIGINATOR     = 

OBJECT_NAME    = SL-14 R/B
OBJECT_ID      = 1982-092B
CENTER_NAME    = EARTH
REF_FRAME      = TEME
TIME_SYSTEM    = UTC
MEAN_ELEMENT_THEORY = SGP/SGP4

EPOCH          = 2026-02-27T04:54:14.385024
MEAN_MOTION    = 14.86653812
ECCENTRICITY   = .0019713
INCLINATION    = 82.5710
RA_OF_ASC_NODE = 151.2049
ARG_OF_PERICENTER = 340.2067
MEAN_ANOMALY   = 45.1968

EPHEMERIS_TYPE = 0
CLASSIFICATION_TYPE = U
NORAD_CAT_ID   = 13553
ELEMENT_SET_NO = 999
REV_AT_EPOCH   = 32737
BSTAR          = .5227E-4
MEAN_MOTION_DOT = .49E-5
MEAN_MOTION_DDOT = 0

CCSDS_OMM_VERS = 2.0
CREATION_DATE  = 
ORIGINATOR     = 

OBJECT_NAME    = SL-3 R/B
OBJECT_ID      = 1983-010B
CENTER_NAME    = EARTH
REF_FRAME      = TEME
TIME_SYSTEM    = UTC
MEAN_ELEMENT_THEORY = SGP/SGP4

EPOCH          = 2026-02-27T03:31:59.267136
MEAN_MOTION    = 15.45914968
ECCENTRICITY   = .0018631
INCLINATION    = 81.1044
RA_OF_ASC_NODE = 15.1664
ARG_OF_PERICENTER = 84.1728
MEAN_ANOMALY   = 276.1639

EPHEMERIS_TYPE = 0
CLASSIFICATION_TYPE = U
NORAD_CAT_ID   = 13819
ELEMENT_SET_NO = 999
REV_AT_EPOCH   = 35631
BSTAR          = .36151E-3
MEAN_MOTION_DOT = .17743E-3
MEAN_MOTION_DDOT = 0

CCSDS_OMM_VERS = 2.0
CREATION_DATE  = 
ORIGINATOR     = 

OBJECT_NAME    = SL-3 R/B
OBJECT_ID      = 1983-075B
CENTER_NAME    = EARTH
REF_FRAME      = TEME
TIME_SYSTEM    = UTC
MEAN_ELEMENT_THEORY = SGP/SGP4

EPOCH          = 2026-02-27T03:34:28.363296
MEAN_MOTION    = 15.38117806
ECCENTRICITY   = .0019607
INCLINATION    = 97.6138
RA_OF_ASC_NODE = 62.3302
ARG_OF_PERICENTER = 267.3645
MEAN_ANOMALY   = 92.5355

EPHEMERIS_TYPE = 0
CLASSIFICATION_TYPE = U
NORAD_CAT_ID   = 14208
ELEMENT_SET_NO = 999
REV_AT_EPOCH   = 32853
BSTAR          = .32596E-3
MEAN_MOTION_DOT = .12227E-3
MEAN_MOTION_DDOT = 0

CCSDS_OMM_VERS = 2.0
CREATION_DATE  = 
ORIGINATOR     = 

OBJECT_NAME    = COSMOS 1536
OBJECT_ID      = 1984-013A
CENTER_NAME    = EARTH
REF_FRAME      = TEME
TIME_SYSTEM    = UTC
MEAN_ELEMENT_THEORY = SGP/SGP4

EPOCH          = 2026-02-27T03:31:47.681760
MEAN_MOTION    = 15.23665687
ECCENTRICITY   = .0013175
INCLINATION    = 82.5449
RA_OF_ASC_NODE = 118.3294
ARG_OF_PERICENTER = 324.5624
MEAN_ANOMALY   = 35.4736

EPHEMERIS_TYPE = 0
CLASSIFICATION_TYPE = U
NORAD_CAT_ID   = 14699
ELEMENT_SET_NO = 999
REV_AT_EPOCH   = 27101
BSTAR          = .2594E-3
MEAN_MOTION_DOT = .6265E-4
MEAN_MOTION_DDOT = 0

CCSDS_OMM_VERS = 2.0
CREATION_DATE  = 
ORIGINATOR     = 

OBJECT_NAME    = SL-14 R/B
OBJECT_ID      = 1984-027B
CENTER_NAME    = EARTH
REF_FRAME      = TEME
TIME_SYSTEM    = UTC
MEAN_ELEMENT_THEORY = SGP/SGP4

EPOCH          = 2026-02-26T23:40:29.954784
MEAN_MOTION    = 14.85963411
ECCENTRICITY   = .0018298
INCLINATION    = 82.5381
RA_OF_ASC_NODE = 255.0541
ARG_OF_PERICENTER = 13.8345
MEAN_ANOMALY   = 346.3369

EPHEMERIS_TYPE = 0
CLASSIFICATION_TYPE = U
NORAD_CAT_ID   = 14820
ELEMENT_SET_NO = 999
REV_AT_EPOCH   = 24604
BSTAR          = .49435E-4
MEAN_MOTION_DOT = .457E-5
MEAN_MOTION_DDOT = 0

CCSDS_OMM_VERS = 2.0
CREATION_DATE  = 
ORIGINATOR     = 

OBJECT_NAME    = SL-8 R/B
OBJECT_ID      = 1985-006B
CENTER_NAME    = EARTH
REF_FRAME      = TEME
TIME_SYSTEM    = UTC
MEAN_ELEMENT_THEORY = SGP/SGP4

EPOCH          = 2026-02-27T02:13:28.806528
MEAN_MOTION    = 14.37776294
ECCENTRICITY   = .0018884
INCLINATION    = 74.0437
RA_OF_ASC_NODE = 280.6494
ARG_OF_PERICENTER = 200.6561
MEAN_ANOMALY   = 276.6008

EPHEMERIS_TYPE = 0
CLASSIFICATION_TYPE = U
NORAD_CAT_ID   = 15483
ELEMENT_SET_NO = 999
REV_AT_EPOCH   = 15250
BSTAR          = .61279E-4
MEAN_MOTION_DOT = .159E-5
MEAN_MOTION_DDOT = 0

CCSDS_OMM_VERS = 2.0
CREATION_DATE  = 
ORIGINATOR     = 

OBJECT_NAME    = SL-12 R/B(2)
OBJECT_ID      = 1985-042D
CENTER_NAME    = EARTH
REF_FRAME      = TEME
TIME_SYSTEM    = UTC
MEAN_ELEMENT_THEORY = SGP/SGP4

EPOCH          = 2026-02-27T03:26:30.920352
MEAN_MOTION    = 14.21979177
ECCENTRICITY   = .0033778
INCLINATION    = 71.1069
RA_OF_ASC_NODE = 110.0117
ARG_OF_PERICENTER = 145.3654
MEAN_ANOMALY   = 281.4370

EPHEMERIS_TYPE = 0
CLASSIFICATION_TYPE = U
NORAD_CAT_ID   = 15772
ELEMENT_SET_NO = 999
REV_AT_EPOCH   = 11289
BSTAR          = .30382E-4
MEAN_MOTION_DOT = .2E-6
MEAN_MOTION_DDOT = 0

CCSDS_OMM_VERS = 2.0
CREATION_DATE  = 
ORIGINATOR     = 

OBJECT_NAME    = SL-14 R/B
OBJECT_ID      = 1985-069B
CENTER_NAME    = EARTH
REF_FRAME      = TEME
TIME_SYSTEM    = UTC
MEAN_ELEMENT_THEORY = SGP/SGP4

EPOCH          = 2026-02-27T04:14:03.654816
MEAN_MOTION    = 14.86418514
ECCENTRICITY   = .0017595
INCLINATION    = 82.5262
RA_OF_ASC_NODE = 34.8188
ARG_OF_PERICENTER = 223.8125
MEAN_ANOMALY   = 136.1697

EPHEMERIS_TYPE = 0
CLASSIFICATION_TYPE = U
NORAD_CAT_ID   = 15945
ELEMENT_SET_NO = 999
REV_AT_EPOCH   = 17127
BSTAR          = .6019E-4
MEAN_MOTION_DOT = .557E-5
MEAN_MOTION_DDOT = 0

CCSDS_OMM_VERS = 2.0
CREATION_DATE  = 
ORIGINATOR     = 

OBJECT_NAME    = SL-16 R/B
OBJECT_ID      = 1985-097B
CENTER_NAME    = EARTH
REF_FRAME      = TEME
TIME_SYSTEM    = UTC
MEAN_ELEMENT_THEORY = SGP/SGP4

EPOCH          = 2026-02-26T18:43:17.948640
MEAN_MOTION    = 14.16598156
ECCENTRICITY   = .00097924
INCLINATION    = 71.0038
RA_OF_ASC_NODE = 163.5202
ARG_OF_PERICENTER = 272.2022
MEAN_ANOMALY   = 255.3598

EPHEMERIS_TYPE = 0
CLASSIFICATION_TYPE = U
NORAD_CAT_ID   = 16182
ELEMENT_SET_NO = 999
REV_AT_EPOCH   = 8568
BSTAR          = .13674003E-3
MEAN_MOTION_DOT = .225E-5
MEAN_MOTION_DDOT = 0

CCSDS_OMM_VERS = 2.0
CREATION_DATE  = 
ORIGINATOR     = 

OBJECT_NAME    = SL-14 R/B
OBJECT_ID      = 1986-006B
CENTER_NAME    = EARTH
REF_FRAME      = TEME
TIME_SYSTEM    = UTC
MEAN_ELEMENT_THEORY = SGP/SGP4

EPOCH          = 2026-02-27T02:08:04.363296
MEAN_MOTION    = 14.86798866
ECCENTRICITY   = .007538
INCLINATION    = 82.5238
RA_OF_ASC_NODE = 269.7168
ARG_OF_PERICENTER = 308.6225
MEAN_ANOMALY   = 50.8259

EPHEMERIS_TYPE = 0
CLASSIFICATION_TYPE = U
NORAD_CAT_ID   = 16496
ELEMENT_SET_NO = 999
REV_AT_EPOCH   = 14763
BSTAR          = .6032E-4
MEAN_MOTION_DOT = .591E-5
MEAN_MOTION_DDOT = 0

CCSDS_OMM_VERS = 2.0
CREATION_DATE  = 
ORIGINATOR     = 

OBJECT_NAME    = COSMOS 1743
OBJECT_ID      = 1986-034A
CENTER_NAME    = EARTH
REF_FRAME      = TEME
TIME_SYSTEM    = UTC
MEAN_ELEMENT_THEORY = SGP/SGP4

EPOCH          = 2026-02-27T02:37:49.573056
MEAN_MOTION    = 15.57712497
ECCENTRICITY   = .0002824
INCLINATION    = 82.5312
RA_OF_ASC_NODE = 84.9294
ARG_OF_PERICENTER = 355.2112
MEAN_ANOMALY   = 4.9116

EPHEMERIS_TYPE = 0
CLASSIFICATION_TYPE = U
NORAD_CAT_ID   = 16719
ELEMENT_SET_NO = 999
REV_AT_EPOCH   = 17860
BSTAR          = .48479E-3
MEAN_MOTION_DOT = .36053E-3
MEAN_MOTION_DDOT = 0

