SL-3 R/B                
1 13403U 82079B   26058.10090377  .00007422  00000+0  29733-3 0  9996
2 13403  81.1458 205.5770 0024641 200.3518 159.6736 15.24610086376086
SL-14 R/B               
1 13553U 82092B   26058.20433316  .00000490  00000+0  52270-4 0  9993
2 13553  82.5710 151.2049 0019713 340.2067  45.1968 14.86653812327376
SL-3 R/B                
1 13819U 83010B   26058.14721374  .00017743  00000+0  36151-3 0  9994
2 13819  81.1044  15.1664 0018631  84.1728 276.1639 15.45914968356318
SL-3 R/B                
1 14208U 83075B   26058.14893939  .00012227  00000+0  32596-3 0  9996
2 14208  97.6138  62.3302 0019607 267.3645  92.5355 15.38117806328533
COSMOS 1536             
1 14699U 84013A   26058.14707965  .00006265  00000+0  25940-3 0  9996
2 14699  82.5449 118.3294 0013175 324.5624  35.4736 15.23665687271012
SL-14 R/B               
1 14820U 84027B   26057.98645781  .00000457  00000+0  49435-4 0  9998
2 14820  82.5381 255.0541 0018298  13.8345 346.3369 14.85963411246040
SL-8 R/B                
1 15483U 85006B   26058.09269452  .00000159  00000+0  61279-4 0  9991
2 15483  74.0437 280.6494 0018884 200.6561 276.6008 14.37776294152502
SL-12 R/B(2)            
1 15772U 85042D   26058.14341343  .00000020  00000+0  30382-4 0  9996
2 15772  71.1069 110.0117 0033778 145.3654 281.4370 14.21979177112899
SL-14 R/B               
1 15945U 85069B   26058.17643119  .00000557  00000+0  60190-4 0  9991
2 15945  82.5262  34.8188 0017595 223.8125 136.1697 14.86418514171276
SL-16 R/B               
1 16182U 85097B   26057.78006885  .00000225  00000+0  13674-3 0  9991
2 16182  71.0038 163.5202 0009792 272.2022 255.3598 14.16598156 85682
SL-14 R/B               
1 16496U 86006B   26058.08893939  .00000591  00000+0  60320-4 0  9995
2 16496  82.5238 269.7168 0075380 308.6225  50.8259 14.86798866147637
COSMOS 1743             
1 16719U 86034A   26058.10960154  .00036053  00000+0  48479-3 0  9993
2 16719  82.5312  84.9294 0002824 355.2112   4.9116 15.57712497178609
